     2              NAVIGATION DATA                         RINEX VERSION / TYPE
CCRINEXN V1.6.0 UX  CDDIS               30-APR-04 02:37     PGM / RUN BY / DATE 
IGS BROADCAST EPHEMERIS FILE                                COMMENT             
    0.1397D-07  0.2235D-07 -0.1192D-06 -0.1192D-06          ION ALPHA           
    0.1044D+06  0.9830D+05 -0.1966D+06 -0.3932D+06          ION BETA            
   -0.186264514923D-08-0.159872115546D-13   503808     1268 DELTA-UTC: A0,A1,T,W
    13                                                      LEAP SECONDS        
                                                            END OF HEADER       
 3 04  4 29  8  0  0.0 0.602938234806D-05 0.341060513165D-11 0.000000000000D+00
    0.660000000000D+02 0.436250000000D+02 0.552665877895D-08 0.958661086825D+00
    0.250153243542D-05 0.553730002139D-02 0.656954944134D-05 0.515368052101D+04
    0.374400000000D+06 0.186264514923D-07 0.276854273852D+00 0.763684511185D-07
    0.928787961712D+00 0.233875000000D+03 0.546132026214D+00-0.860857286733D-08
   -0.250010413937D-11 0.100000000000D+01 0.126800000000D+04 0.000000000000D+00
    0.280000000000D+01 0.000000000000D+00-0.419095158577D-08 0.322000000000D+03
    0.367218000000D+06 0.400000000000D+01 0.000000000000D+00 0.000000000000D+00
 4 04  4 29  8  0  0.0-0.129134394229D-03-0.112549969344D-10 0.000000000000D+00
    0.700000000000D+02 0.518750000000D+01 0.452518866823D-08-0.196494904875D+01
    0.206753611565D-06 0.663622072898D-02 0.723637640476D-05 0.515363911629D+04
    0.374400000000D+06-0.167638063431D-07 0.142164681080D+01-0.745058059692D-07
    0.959919418737D+00 0.242125000000D+03-0.577682723376D-01-0.808176547906D-08
   -0.345014378178D-09 0.100000000000D+01 0.126800000000D+04 0.000000000000D+00
    0.200000000000D+01 0.000000000000D+00-0.605359673500D-08 0.326000000000D+03
    0.367218000000D+06 0.400000000000D+01 0.000000000000D+00 0.000000000000D+00
 5 04  4 29  8  0  0.0 0.277943909168D-04 0.170530256582D-11 0.000000000000D+00
    0.370000000000D+02-0.312500000000D+02 0.507271129879D-08-0.223150079517D+01
   -0.147335231304D-05 0.520401890390D-02 0.105015933514D-04 0.515379879379D+04
    0.374400000000D+06 0.134110450745D-06-0.768530271753D+00-0.167638063431D-07
    0.935941821299D+00 0.163968750000D+03 0.829008573500D+00-0.812390982202D-08
    0.160363822654D-09 0.100000000000D+01 0.126800000000D+04 0.000000000000D+00
    0.000000000000D+00 0.000000000000D+00-0.419095158577D-08 0.370000000000D+02
    0.367206000000D+06 0.400000000000D+01 0.000000000000D+00 0.000000000000D+00
 6 04  4 29  8  0  0.0 0.228672288358D-04-0.136424205266D-11 0.000000000000D+00
    0.151000000000D+03 0.463750000000D+02 0.528129141556D-08-0.993196569892D+00
    0.234320759773D-05 0.651286367793D-02 0.642985105515D-05 0.515382695961D+04
    0.374400000000D+06-0.409781932831D-07 0.329691437017D+00 0.165775418282D-06
    0.936279753913D+00 0.240000000000D+03-0.201879361241D+01-0.847035282419D-08
    0.360729311538D-10 0.000000000000D+00 0.126800000000D+04 0.000000000000D+00
    0.200000000000D+01 0.000000000000D+00-0.465661287308D-08 0.407000000000D+03
    0.367200000000D+06 0.400000000000D+01 0.000000000000D+00 0.000000000000D+00
 7 04  4 29  8  0  0.0 0.559830106795D-03-0.123918653117D-10 0.000000000000D+00
    0.161000000000D+03 0.398437500000D+02 0.533057908925D-08 0.101653207210D+01
    0.203773379326D-05 0.128202561755D-01 0.713579356670D-05 0.515377487564D+04
    0.374400000000D+06-0.206753611565D-06 0.301761353846D+00-0.298023223877D-07
    0.937942745057D+00 0.235875000000D+03-0.184339074705D+01-0.860035864747D-08
   -0.271439884458D-10 0.100000000000D+01 0.126800000000D+04 0.000000000000D+00
    0.280000000000D+01 0.000000000000D+00-0.186264514923D-08 0.673000000000D+03
    0.367218000000D+06 0.400000000000D+01 0.000000000000D+00 0.000000000000D+00
 8 04  4 29  8  0  0.0 0.298165716231D-03-0.134150468512D-10 0.000000000000D+00
    0.800000000000D+01-0.858437500000D+02 0.463590738987D-08-0.955645984868D+00
   -0.469386577606D-05 0.886208366137D-02 0.727176666260D-05 0.515365126228D+04
    0.374400000000D+06-0.223517417908D-07-0.170880220183D+01-0.689178705216D-07
    0.964265966325D+00 0.242312500000D+03 0.241016853381D+01-0.829105964163D-08
   -0.153577825704D-10 0.100000000000D+01 0.126800000000D+04 0.000000000000D+00
    0.400000000000D+01 0.000000000000D+00-0.419095158577D-08 0.264000000000D+03
    0.367218000000D+06 0.400000000000D+01 0.000000000000D+00 0.000000000000D+00
 9 04  4 29  8  0  0.0-0.418676063418D-04-0.181898940355D-11 0.000000000000D+00
    0.165000000000D+03-0.847812500000D+02 0.497020691270D-08-0.133059659187D+01
   -0.415928661823D-05 0.154789476655D-01 0.545196235180D-05 0.515371237373D+04
    0.374400000000D+06 0.363215804100D-06-0.177716060983D+01 0.227242708206D-06
    0.951160574170D+00 0.266406250000D+03 0.103529415593D+01-0.830427460130D-08
   -0.964325910791D-10 0.100000000000D+01 0.126800000000D+04 0.000000000000D+00
    0.280000000000D+01 0.000000000000D+00-0.558793544769D-08 0.165000000000D+03
    0.371856000000D+06 0.400000000000D+01 0.000000000000D+00 0.000000000000D+00
10 04  4 29  8  0  0.0 0.432245433331D-04 0.568434188608D-12 0.000000000000D+00
    0.167000000000D+03 0.520312500000D+02 0.384123143128D-08 0.218388700880D+01
    0.267848372459D-05 0.611377006862D-02 0.952184200287D-05 0.515370512390D+04
    0.374400000000D+06-0.651925802231D-07 0.245870106931D+01 0.260770320892D-07
    0.980371670335D+00 0.206250000000D+03 0.294545302686D+00-0.777496671572D-08
    0.371444043564D-10 0.100000000000D+01 0.126800000000D+04 0.000000000000D+00
    0.200000000000D+01 0.000000000000D+00-0.232830643654D-08 0.167000000000D+03
    0.367218000000D+06 0.400000000000D+01 0.000000000000D+00 0.000000000000D+00
11 04  4 29  8  0  0.0 0.113526824862D-03 0.284217094304D-11 0.000000000000D+00
    0.189000000000D+03-0.218750000000D+00 0.578845539812D-08-0.438324964280D+00
   -0.126659870148D-06 0.286136963405D-02 0.601261854172D-05 0.515368602943D+04
    0.374400000000D+06 0.100582838059D-06 0.129581067624D+01 0.316649675369D-07
    0.907145791566D+00 0.235500000000D+03 0.988451818929D-01-0.875500753835D-08
   -0.424303388225D-09 0.100000000000D+01 0.126800000000D+04 0.000000000000D+00
    0.200000000000D+01 0.000000000000D+00-0.121071934700D-07 0.445000000000D+03
    0.373878000000D+06 0.400000000000D+01 0.000000000000D+00 0.000000000000D+00
13 04  4 29  8  0  0.0-0.292412005365D-04 0.454747350887D-12 0.000000000000D+00
    0.170000000000D+02 0.115000000000D+02 0.411695720208D-08 0.234036968401D+01
    0.691041350365D-06 0.225257221609D-02 0.442564487457D-05 0.515367906761D+04
    0.374400000000D+06-0.409781932831D-07-0.278220304476D+01-0.875443220139D-07
    0.983285651006D+00 0.305281250000D+03 0.721712500074D+00-0.803926343902D-08
    0.344657213499D-09 0.100000000000D+01 0.126800000000D+04 0.000000000000D+00
    0.200000000000D+01 0.000000000000D+00-0.111758708954D-07 0.170000000000D+02
    0.367218000000D+06 0.400000000000D+01 0.000000000000D+00 0.000000000000D+00
14 04  4 29  8  0  0.0-0.192662701011D-04-0.341060513165D-12 0.000000000000D+00
    0.119000000000D+03 0.168437500000D+02 0.427267797419D-08 0.593138542121D+00
    0.877305865288D-06 0.146624376066D-02 0.417046248913D-05 0.515360060692D+04
    0.374400000000D+06-0.353902578354D-07-0.279131290920D+01 0.521540641785D-07
    0.977733912005D+00 0.302093750000D+03-0.142697251141D+01-0.813462455405D-08
    0.349657421778D-09 0.100000000000D+01 0.126800000000D+04 0.000000000000D+00
    0.280000000000D+01 0.000000000000D+00-0.102445483208D-07 0.375000000000D+03
    0.367218000000D+06 0.400000000000D+01 0.000000000000D+00 0.000000000000D+00
15 04  4 29  8  0  0.0 0.259554944933D-03 0.522959453519D-11 0.000000000000D+00
    0.930000000000D+02-0.453125000000D+01 0.438375402952D-08-0.110768502739D+01
   -0.335276126862D-06 0.883768766653D-02 0.753439962864D-05 0.515369129372D+04
    0.374400000000D+06-0.167638063431D-06 0.147391241334D+01 0.391155481339D-07
    0.966910095664D+00 0.241062500000D+03 0.221269131865D+01-0.808712257540D-08
   -0.266796827445D-09 0.100000000000D+01 0.126800000000D+04 0.000000000000D+00
    0.400000000000D+01 0.000000000000D+00-0.232830643654D-08 0.349000000000D+03
    0.369108000000D+06 0.400000000000D+01 0.000000000000D+00 0.000000000000D+00
16 04  4 29  8  0  0.0 0.127935782075D-04-0.454747350887D-12 0.000000000000D+00
    0.870000000000D+02-0.153125000000D+02 0.453911764390D-08-0.219366904314D+01
   -0.746920704842D-06 0.241043767892D-02 0.103972852230D-04 0.515381612778D+04
    0.374400000000D+06-0.558793544769D-08-0.697249379144D+00 0.242143869400D-07
    0.961187983760D+00 0.180437500000D+03-0.143639921904D+01-0.785425573271D-08
    0.982183769039D-10 0.100000000000D+01 0.126800000000D+04 0.000000000000D+00
    0.280000000000D+01 0.000000000000D+00-0.977888703346D-08 0.343000000000D+03
    0.367218000000D+06 0.400000000000D+01 0.000000000000D+00 0.000000000000D+00
17 04  4 29  8  0  0.0 0.309266615659D-03 0.210320649785D-10 0.000000000000D+00
    0.229000000000D+03-0.187500000000D+01 0.447340062081D-08-0.369637260739D+00
   -0.104308128357D-06 0.165718558710D-01 0.735931098461D-05 0.515360375023D+04
    0.374400000000D+06 0.268220901489D-06 0.151557646507D+01 0.128522515297D-06
    0.968917094920D+00 0.243062500000D+03-0.279638526458D+01-0.827748764773D-08
   -0.478234206089D-09 0.000000000000D+00 0.126800000000D+04 0.000000000000D+00
    0.200000000000D+01 0.000000000000D+00-0.139698386192D-08 0.229000000000D+03
    0.367200000000D+06 0.400000000000D+01 0.000000000000D+00 0.000000000000D+00
